[{"OBJECT_NAME":"BEIDOU-3 M2 (C20)","OBJECT_ID":"2017-069B","EPOCH":"2026-03-12T22:57:23.073120","MEAN_MOTION":1.86230974,"ECCENTRICITY":0.00098363,"INCLINATION":56.6078,"RA_OF_ASC_NODE":66.2881,"ARG_OF_PERICENTER":329.3549,"MEAN_ANOMALY":30.6095,"EPHEMERIS_TYPE":0,"CLASSIFICATION_TYPE":"U","NORAD_CAT_ID":43002,"ELEMENT_SET_NO":999,"REV_AT_EPOCH":5680,"BSTAR":0,"MEAN_MOTION_DOT":1.1e-7,"MEAN_MOTION_DDOT":0},{"OBJECT_NAME":"BEIDOU-3 M7 (C27)","OBJECT_ID":"2018-003A","EPOCH":"2026-03-14T20:18:31.703328","MEAN_MOTION":1.86232715,"ECCENTRICITY":0.00048464,"INCLINATION":54.4114,"RA_OF_ASC_NODE":305.6058,"ARG_OF_PERICENTER":71.6195,"MEAN_ANOMALY":288.4919,"EPHEMERIS_TYPE":0,"CLASSIFICATION_TYPE":"U","NORAD_CAT_ID":43107,"ELEMENT_SET_NO":999,"REV_AT_EPOCH":5559,"BSTAR":0,"MEAN_MOTION_DOT":-2.0e-7,"MEAN_MOTION_DDOT":0},{"OBJECT_NAME":"BEIDOU-3 M8 (C28)","OBJECT_ID":"2018-003B","EPOCH":"2026-03-14T19:00:15.274080","MEAN_MOTION":1.86231247,"ECCENTRICITY":0.00029011,"INCLINATION":54.4042,"RA_OF_ASC_NODE":305.5901,"ARG_OF_PERICENTER":295.5473,"MEAN_ANOMALY":64.4813,"EPHEMERIS_TYPE":0,"CLASSIFICATION_TYPE":"U","NORAD_CAT_ID":43108,"ELEMENT_SET_NO":999,"REV_AT_EPOCH":5560,"BSTAR":0,"MEAN_MOTION_DOT":-2.0e-7,"MEAN_MOTION_DDOT":0},{"OBJECT_NAME":"BEIDOU-3 M4 (C22)","OBJECT_ID":"2018-018A","EPOCH":"2026-03-13T02:04:13.434240","MEAN_MOTION":1.86231392,"ECCENTRICITY":0.0006972,"INCLINATION":56.5678,"RA_OF_ASC_NODE":66.3153,"ARG_OF_PERICENTER":350.3592,"MEAN_ANOMALY":9.6495,"EPHEMERIS_TYPE":0,"CLASSIFICATION_TYPE":"U","NORAD_CAT_ID":43207,"ELEMENT_SET_NO":999,"REV_AT_EPOCH":5495,"BSTAR":0,"MEAN_MOTION_DOT":1.2e-7,"MEAN_MOTION_DDOT":0},{"OBJECT_NAME":"BEIDOU-3 M3 (C21)","OBJECT_ID":"2018-018B","EPOCH":"2026-03-13T03:39:54.144864","MEAN_MOTION":1.86231479,"ECCENTRICITY":0.00100397,"INCLINATION":56.5674,"RA_OF_ASC_NODE":66.3171,"ARG_OF_PERICENTER":319.6425,"MEAN_ANOMALY":40.3052,"EPHEMERIS_TYPE":0,"CLASSIFICATION_TYPE":"U","NORAD_CAT_ID":43208,"ELEMENT_SET_NO":999,"REV_AT_EPOCH":5495,"BSTAR":0,"MEAN_MOTION_DOT":1.2e-7,"MEAN_MOTION_DDOT":0},{"OBJECT_NAME":"BEIDOU-3 M9 (C29)","OBJECT_ID":"2018-029A","EPOCH":"2026-03-14T23:32:24.328896","MEAN_MOTION":1.8622836,"ECCENTRICITY":9.661e-5,"INCLINATION":54.2789,"RA_OF_ASC_NODE":303.2447,"ARG_OF_PERICENTER":29.1747,"MEAN_ANOMALY":330.8891,"EPHEMERIS_TYPE":0,"CLASSIFICATION_TYPE":"U","NORAD_CAT_ID":43245,"ELEMENT_SET_NO":999,"REV_AT_EPOCH":5414,"BSTAR":0,"MEAN_MOTION_DOT":-1.5e-7,"MEAN_MOTION_DDOT":0},{"OBJECT_NAME":"BEIDOU-3 M10 (C30)","OBJECT_ID":"2018-029B","EPOCH":"2026-03-14T21:58:33.768768","MEAN_MOTION":1.86229332,"ECCENTRICITY":0.00052487,"INCLINATION":54.2761,"RA_OF_ASC_NODE":303.2737,"ARG_OF_PERICENTER":25.9665,"MEAN_ANOMALY":334.1181,"EPHEMERIS_TYPE":0,"CLASSIFICATION_TYPE":"U","NORAD_CAT_ID":43246,"ELEMENT_SET_NO":999,"REV_AT_EPOCH":5412,"BSTAR":0,"MEAN_MOTION_DOT":-1.5e-7,"MEAN_MOTION_DDOT":0},{"OBJECT_NAME":"BEIDOU-2 IGSO-7 (C16)","OBJECT_ID":"2018-057A","EPOCH":"2026-03-14T15:53:44.118816","MEAN_MOTION":1.00280609,"ECCENTRICITY":0.01006588,"INCLINATION":55.1859,"RA_OF_ASC_NODE":163.8862,"ARG_OF_PERICENTER":236.7866,"MEAN_ANOMALY":122.7872,"EPHEMERIS_TYPE":0,"CLASSIFICATION_TYPE":"U","NORAD_CAT_ID":43539,"ELEMENT_SET_NO":999,"REV_AT_EPOCH":2818,"BSTAR":0,"MEAN_MOTION_DOT":-1.49e-6,"MEAN_MOTION_DDOT":0},{"OBJECT_NAME":"BEIDOU-3 M5 (C23)","OBJECT_ID":"2018-062A","EPOCH":"2026-03-12T10:55:13.474848","MEAN_MOTION":1.86228824,"ECCENTRICITY":0.00023887,"INCLINATION":54.0877,"RA_OF_ASC_NODE":185.5927,"ARG_OF_PERICENTER":304.9134,"MEAN_ANOMALY":55.0505,"EPHEMERIS_TYPE":0,"CLASSIFICATION_TYPE":"U","NORAD_CAT_ID":43581,"ELEMENT_SET_NO":999,"REV_AT_EPOCH":5183,"BSTAR":0,"MEAN_MOTION_DOT":-1.1e-7,"MEAN_MOTION_DDOT":0},{"OBJECT_NAME":"BEIDOU-3 M6 (C24)","OBJECT_ID":"2018-062B","EPOCH":"2026-03-14T11:10:45.623712","MEAN_MOTION":1.86227846,"ECCENTRICITY":0.00058914,"INCLINATION":54.0871,"RA_OF_ASC_NODE":185.5136,"ARG_OF_PERICENTER":41.2236,"MEAN_ANOMALY":318.8045,"EPHEMERIS_TYPE":0,"CLASSIFICATION_TYPE":"U","NORAD_CAT_ID":43582,"ELEMENT_SET_NO":999,"REV_AT_EPOCH":5187,"BSTAR":0,"MEAN_MOTION_DOT":-1.3e-7,"MEAN_MOTION_DDOT":0},{"OBJECT_NAME":"BEIDOU-3 M12 (C26)","OBJECT_ID":"2018-067A","EPOCH":"2026-03-12T06:09:12.634272","MEAN_MOTION":1.8622785,"ECCENTRICITY":0.00083688,"INCLINATION":54.1816,"RA_OF_ASC_NODE":184.3275,"ARG_OF_PERICENTER":38.978,"MEAN_ANOMALY":321.0706,"EPHEMERIS_TYPE":0,"CLASSIFICATION_TYPE":"U","NORAD_CAT_ID":43602,"ELEMENT_SET_NO":999,"REV_AT_EPOCH":5131,"BSTAR":0,"MEAN_MOTION_DOT":-1.1e-7,"MEAN_MOTION_DDOT":0},{"OBJECT_NAME":"BEIDOU-3 M11 (C25)","OBJECT_ID":"2018-067B","EPOCH":"2026-03-12T09:23:16.871136","MEAN_MOTION":1.86227337,"ECCENTRICITY":0.0004938,"INCLINATION":54.1791,"RA_OF_ASC_NODE":184.2861,"ARG_OF_PERICENTER":32.5137,"MEAN_ANOMALY":327.5049,"EPHEMERIS_TYPE":0,"CLASSIFICATION_TYPE":"U","NORAD_CAT_ID":43603,"ELEMENT_SET_NO":999,"REV_AT_EPOCH":5134,"BSTAR":0,"MEAN_MOTION_DOT":-1.2e-7,"MEAN_MOTION_DDOT":0},{"OBJECT_NAME":"BEIDOU-3 M13 (C32)","OBJECT_ID":"2018-072A","EPOCH":"2026-03-15T00:45:38.855808","MEAN_MOTION":1.86231337,"ECCENTRICITY":0.00090682,"INCLINATION":56.5429,"RA_OF_ASC_NODE":65.7646,"ARG_OF_PERICENTER":308.7674,"MEAN_ANOMALY":51.1738,"EPHEMERIS_TYPE":0,"CLASSIFICATION_TYPE":"U","NORAD_CAT_ID":43622,"ELEMENT_SET_NO":999,"REV_AT_EPOCH":5090,"BSTAR":0,"MEAN_MOTION_DOT":2.1e-7,"MEAN_MOTION_DDOT":0},{"OBJECT_NAME":"BEIDOU-3 M14 (C33)","OBJECT_ID":"2018-072B","EPOCH":"2026-03-12T17:59:02.777280","MEAN_MOTION":1.86231274,"ECCENTRICITY":0.00065754,"INCLINATION":56.5428,"RA_OF_ASC_NODE":65.8343,"ARG_OF_PERICENTER":329.8398,"MEAN_ANOMALY":30.1432,"EPHEMERIS_TYPE":0,"CLASSIFICATION_TYPE":"U","NORAD_CAT_ID":43623,"ELEMENT_SET_NO":999,"REV_AT_EPOCH":5085,"BSTAR":0,"MEAN_MOTION_DOT":8.0e-8,"MEAN_MOTION_DDOT":0},{"OBJECT_NAME":"BEIDOU-3 M16 (C35)","OBJECT_ID":"2018-078A","EPOCH":"2026-03-15T01:17:37.108608","MEAN_MOTION":1.86232399,"ECCENTRICITY":0.00084604,"INCLINATION":54.1747,"RA_OF_ASC_NODE":303.2868,"ARG_OF_PERICENTER":32.735,"MEAN_ANOMALY":327.3759,"EPHEMERIS_TYPE":0,"CLASSIFICATION_TYPE":"U","NORAD_CAT_ID":43647,"ELEMENT_SET_NO":999,"REV_AT_EPOCH":5040,"BSTAR":0,"MEAN_MOTION_DOT":-1.5e-7,"MEAN_MOTION_DDOT":0},{"OBJECT_NAME":"BEIDOU-3 M15 (C34)","OBJECT_ID":"2018-078B","EPOCH":"2026-03-14T02:37:23.272896","MEAN_MOTION":1.86232472,"ECCENTRICITY":0.00054077,"INCLINATION":54.1714,"RA_OF_ASC_NODE":303.3209,"ARG_OF_PERICENTER":39.9151,"MEAN_ANOMALY":320.1811,"EPHEMERIS_TYPE":0,"CLASSIFICATION_TYPE":"U","NORAD_CAT_ID":43648,"ELEMENT_SET_NO":999,"REV_AT_EPOCH":5040,"BSTAR":0,"MEAN_MOTION_DOT":-1.9e-7,"MEAN_MOTION_DDOT":0},{"OBJECT_NAME":"BEIDOU-3 G1 (C59)","OBJECT_ID":"2018-085A","EPOCH":"2026-03-13T07:30:13.029120","MEAN_MOTION":1.00265903,"ECCENTRICITY":0.00020953,"INCLINATION":2.8312,"RA_OF_ASC_NODE":100.0786,"ARG_OF_PERICENTER":8.4898,"MEAN_ANOMALY":314.822,"EPHEMERIS_TYPE":0,"CLASSIFICATION_TYPE":"U","NORAD_CAT_ID":43683,"ELEMENT_SET_NO":999,"REV_AT_EPOCH":2709,"BSTAR":0,"MEAN_MOTION_DOT":-2.79e-6,"MEAN_MOTION_DDOT":0}]
